SHIYAN-3 (SY-3)         
1 33433U 08056A   26068.68635892  .00000219  00000+0  10019-3 0  9999
2 33433  98.6178  96.1558 0014691  69.2006 291.0749 14.30765435904570
IRIDIUM 158             
1 43571U 18061C   26068.63387013 -.00000021  00000+0 -14507-4 0  9994
2 43571  86.3916  98.4013 0001997  90.6550 269.4875 14.34217236399095
